ONEWEB-0226             
1 48793U 21045AC  24085.00908187  .00000033  00000+0  52789-4 0  9995
2 48793  87.8985  61.2319 0001652  67.6264 292.5041 13.15548706138426
ONEWEB-0224             
1 48794U 21045AD  24084.89657513 -.00000013  00000+0 -67644-4 0  9992
2 48794  87.8988  61.2716 0001157  97.1264 262.9998 13.15548066137216
ONEWEB-0233             
1 48795U 21045AE  24085.19684685 -.00000040  00000+0 -14146-3 0  9995
2 48795  87.8986  61.2242 0001894  77.5465 282.5877 13.15547991138381
ONEWEB-0190             
1 48796U 21045AF  24085.19287341 -.00000048  00000+0 -16111-3 0  9996
2 48796  87.8986  61.1875 0001105  50.7560 309.3668 13.15549593138462
ONEWEB-0236             
1 48797U 21045AG  24085.21031719  .00000070  00000+0  15294-3 0  9990
2 48797  87.8990  61.1744 0001786  84.9326 275.2008 13.15547697138357
ONEWEB-0248             
1 48798U 21045AH  24084.91875872  .00000188  00000+0  46647-3 0  9999
2 48798  87.8982  61.2309 0001045  90.3703 269.7547 13.15548942138478
ONEWEB-0225             
1 48799U 21045AJ  24085.16911703  .00000034  00000+0  56582-4 0  9992
2 48799  87.8989  61.1885 0001407  79.3955 280.7334 13.15548091138531
ONEWEB-0215             
1 48800U 21045AK  24084.91083202  .00000141  00000+0  33933-3 0  9994
2 48800  87.8981  61.2191 0000954  70.4550 289.6683 13.15547281138351
